{"type": "FeatureCollection", "features": [{"type": "Feature", "properties": {"osmid": "26512125", "name": "Oldfield Park", "naptan:AtcoCode": "9100OLDFLDP", "network": "National Rail", "railway": "station", "ref:crs": "OLF", "wheelchair": "yes", "wikidata": "Q2275914", "wikipedia": "en:Oldfield Park railway station", "element_type": "node", "addr:city": "nan", "addr:postcode": "nan", "addr:street": "nan", "alt_name": "nan", "platforms": "nan", "toilets:wheelchair": "nan", "uic_ref": "nan", "website": "nan", "wheelchair:description": "nan", "geometry": {"type": "Point", "coordinates": [-2.380286, 51.379211]}}, "geometry": {"type": "Point", "coordinates": [-2.3802859, 51.379211]}}, {"type": "Feature", "properties": {"osmid": "6605149668", "name": "Bath Spa", "naptan:AtcoCode": "9100BATHSPA", "network": "National Rail", "railway": "station", "ref:crs": "BTH", "wheelchair": "yes", "wikidata": "Q637185", "wikipedia": "en:Bath Spa railway station", "element_type": "node", "addr:city": "Bath", "addr:postcode": "BA1 1SU", "addr:street": "Dorchester Street", "alt_name": "Bath Station", "platforms": "2", "toilets:wheelchair": "yes", "uic_ref": "7000353", "website": "http://www.nationalrail.co.uk/stations_destinations/disabled_passengers.aspx", "wheelchair:description": "Station has lifts available, book assistance ahead of time for boarding ramp. Radar toilet available, key available from staff.", "geometry": {"type": "Point", "coordinates": [-2.356719, 51.377602]}}, "geometry": {"type": "Point", "coordinates": [-2.3567189, 51.3776019]}}]}