{"version": 0.6, "generator": "Overpass API 0.7.62.1 084b4234", "osm3s": {"timestamp_osm_base": "2024-11-04T13:59:15Z", "copyright": "The data included in this document is from www.openstreetmap.org. The data is made available under ODbL."}, "elements": [{"type": "node", "id": 26213967, "lat": 61.5014371, "lon": 23.7503468}, {"type": "node", "id": 32031884, "lat": 61.5161628, "lon": 23.6160544}, {"type": "node", "id": 32921463, "lat": 61.5204001, "lon": 23.6256882}, {"type": "node", "id": 33136744, "lat": 61.5025402, "lon": 23.7555488}, {"type": "node", "id": 33999492, "lat": 61.5018634, "lon": 23.7557929}, {"type": "node", "id": 59118104, "lat": 61.5056404, "lon": 23.7738196}, {"type": "node", "id": 76625548, "lat": 61.4914459, "lon": 23.7725149}, {"type": "node", "id": 227097121, "lat": 61.5012941, "lon": 23.7482981}, {"type": "node", "id": 227097136, "lat": 61.5022277, "lon": 23.748024}, {"type": "node", "id": 227116984, "lat": 61.5039025, "lon": 23.7551815}, {"type": "node", "id": 256126517, "lat": 61.5106519, "lon": 23.7778801}, {"type": "node", "id": 262471904, "lat": 61.5151567, "lon": 23.6160715, "tags": {"highway": "traffic_signals"}}, {"type": "node", "id": 267567908, "lat": 61.4499944, "lon": 23.8939793}, {"type": "node", "id": 267567917, "lat": 61.4498694, "lon": 23.8973637}, {"type": "node", "id": 267567918, "lat": 61.4504458, "lon": 23.8974688}, {"type": "node", "id": 267567919, "lat": 61.4511653, "lon": 23.8972899}, {"type": "node", "id": 267567920, "lat": 61.4514314, "lon": 23.8973605}, {"type": "node", "id": 267567921, "lat": 61.4531656, "lon": 23.8977373}, {"type": "node", "id": 267567926, "lat": 61.4497345, "lon": 23.8998598}, {"type": "node", "id": 299545365, "lat": 61.5152668, "lon": 23.6160882, "tags": {"button_operated": "no", "crossing": "traffic_signals", "crossing:island": "yes", "highway": "crossing", "traffic_signals:sound": "no", "traffic_signals:vibration": "no"}}, {"type": "node", "id": 317146827, "lat": 61.5204038, "lon": 23.625461, "tags": {"highway": "crossing"}}, {"type": "node", "id": 329064476, "lat": 61.4530892, "lon": 23.8977202, "tags": {"bicycle": "yes", "crossing": "uncontrolled", "crossing:island": "no", "highway": "crossing", "tactile_paving": "no"}}, {"type": "node", "id": 408805742, "lat": 61.5154481, "lon": 23.6160558}, {"type": "node", "id": 549621933, "lat": 61.491516, "lon": 23.7726275, "tags": {"crossing": "marked", "crossing:markings": "yes", "highway": "crossing"}}, {"type": "node", "id": 1002115049, "lat": 61.5013722, "lon": 23.7493167}, {"type": "node", "id": 1002115296, "lat": 61.5013762, "lon": 23.7495915}, {"type": "node", "id": 1003931036, "lat": 61.5056417, "lon": 23.7735905}, {"type": "node", "id": 1004255886, "lat": 61.4915985, "lon": 23.7727348}, {"type": "node", "id": 1415083141, "lat": 61.503591, "lon": 23.7552754}, {"type": "node", "id": 1415363175, "lat": 61.5037646, "lon": 23.7552231}, {"type": "node", "id": 1415771223, "lat": 61.503261, "lon": 23.755374}, {"type": "node", "id": 1415771284, "lat": 61.5037358, "lon": 23.7552318}, {"type": "node", "id": 1444812004, "lat": 61.5106419, "lon": 23.7777192}, {"type": "node", "id": 2195378915, "lat": 61.4497477, "lon": 23.8996945, "tags": {"crossing": "marked", "crossing:island": "no", "crossing:markings": "zebra:double", "highway": "crossing", "tactile_paving": "no"}}, {"type": "node", "id": 3349733866, "lat": 61.5155571, "lon": 23.6160448}, {"type": "node", "id": 4078629984, "lat": 61.5013306, "lon": 23.7487645}, {"type": "node", "id": 6261194902, "lat": 61.4497848, "lon": 23.8989837}, {"type": "node", "id": 7761542662, "lat": 61.4498892, "lon": 23.8968282}, {"type": "node", "id": 7761542664, "lat": 61.4499428, "lon": 23.8953759}, {"type": "node", "id": 7761569896, "lat": 61.4527417, "lon": 23.8976448}, {"type": "node", "id": 7761569898, "lat": 61.4525586, "lon": 23.8976051}, {"type": "node", "id": 8995914319, "lat": 61.4499196, "lon": 23.8960051}, {"type": "node", "id": 8995914322, "lat": 61.4499255, "lon": 23.8958435}, {"type": "node", "id": 9813837177, "lat": 61.516018, "lon": 23.6160385}, {"type": "node", "id": 10811049013, "lat": 61.5018467, "lon": 23.7481359}, {"type": "node", "id": 10879378797, "lat": 61.5026004, "lon": 23.755521, "tags": {"crossing": "uncontrolled", "crossing:island": "no", "crossing:markings": "yes", "highway": "crossing"}}, {"type": "node", "id": 11303550884, "lat": 61.5026811, "lon": 23.7555072}, {"type": "node", "id": 11303550885, "lat": 61.5025161, "lon": 23.7555817}, {"type": "node", "id": 11303550886, "lat": 61.5024866, "lon": 23.7555982}, {"type": "node", "id": 11835983561, "lat": 61.5156666, "lon": 23.6160296}, {"type": "node", "id": 12086950467, "lat": 61.5018962, "lon": 23.755783, "tags": {"crossing": "uncontrolled", "crossing:island": "no", "highway": "crossing"}}, {"type": "node", "id": 12086950468, "lat": 61.5019123, "lon": 23.7557782}, {"type": "node", "id": 12087782219, "lat": 61.5014108, "lon": 23.7500212}, {"type": "node", "id": 12087782230, "lat": 61.5014305, "lon": 23.7502647, "tags": {"highway": "crossing"}}, {"type": "node", "id": 12087782240, "lat": 61.5013061, "lon": 23.7484509, "tags": {"highway": "crossing"}}, {"type": "node", "id": 12087825261, "lat": 61.5013634, "lon": 23.7482778, "tags": {"crossing": "uncontrolled", "highway": "crossing"}}, {"type": "way", "id": 8876627, "nodes": [33999492, 12086950467, 12086950468, 11303550886, 11303550885, 33136744, 10879378797, 11303550884, 1415771223, 1415083141, 1415771284, 1415363175, 227116984], "tags": {"cycleway:left": "no", "cycleway:right": "track", "cycleway:right:segregated": "no", "foot": "yes", "highway": "residential", "lit": "yes", "maxspeed": "30", "name": "Kuninkaankatu", "name:fi": "Kuninkaankatu", "name:sv": "Kungsgatan", "sidewalk": "both", "source:name:sv": "1841 city plan", "source:width": "ARCore", "surface": "asphalt", "width": "4.1"}}, {"type": "way", "id": 22376528, "nodes": [26213967, 12087782230, 12087782219, 1002115296, 1002115049, 4078629984], "tags": {"cycleway:right": "track", "highway": "residential", "lane_markings": "no", "maxspeed": "30", "maxspeed:type": "FI:zone30", "name": "Puuvillatehtaankatu", "name:fi": "Puuvillatehtaankatu", "note": "Historic Finnish name translated from Swedish language city plan; may be inaccurate", "old_name": "Polttimonkatu", "old_name:fi": "Polttimonkatu", "old_name:sv": "Br\u00e4nnerigatan", "oneway": "yes", "oneway:bicycle": "no", "source:old_name:sv": "1841 city plan", "surface": "asphalt"}}, {"type": "way", "id": 23641914, "nodes": [256126517, 1444812004], "tags": {"cycleway:right": "track", "foot": "yes", "highway": "unclassified", "lane_markings": "no", "lit": "yes", "maxspeed": "40", "name": "Poijukatu", "name:fi": "Poijukatu", "oneway": "yes", "sidewalk": "no", "surface": "asphalt"}}, {"type": "way", "id": 24614168, "nodes": [267567908, 7761542664, 8995914322, 8995914319, 7761542662, 267567917, 6261194902, 2195378915, 267567926], "tags": {"cycleway:left": "no", "cycleway:right": "track", "cycleway:right:segregated": "no", "highway": "tertiary", "lane_markings": "no", "lit": "yes", "maxspeed": "40", "name": "Keskiruskonkatu", "name:fi": "Keskiruskonkatu", "sidewalk": "right", "surface": "asphalt"}}, {"type": "way", "id": 24614169, "nodes": [267567917, 267567918, 267567919, 267567920, 7761569898, 7761569896, 329064476, 267567921], "tags": {"cycleway:left": "no", "cycleway:right": "track", "cycleway:right:segregated": "no", "highway": "unclassified", "lane_markings": "no", "lit": "yes", "maxspeed": "40", "name": "Vesiroineenkatu", "name:fi": "Vesiroineenkatu", "sidewalk": "right", "sidewalk:right:surface": "asphalt", "smoothness": "good", "surface": "asphalt"}}, {"type": "way", "id": 86411630, "nodes": [59118104, 1003931036], "tags": {"bicycle": "use_sidepath", "cycleway:left": "no", "cycleway:right": "track", "highway": "secondary", "lanes": "2", "lit": "yes", "maxspeed": "40", "name": "Lapintie", "name:fi": "Lapintie", "sidewalk": "both", "surface": "asphalt"}}, {"type": "way", "id": 86428603, "nodes": [1004255886, 549621933, 76625548], "tags": {"cycleway:right": "track", "highway": "unclassified", "lane_markings": "no", "lit": "yes", "maxspeed": "40", "name": "Sorinkatu", "name:fi": "Sorinkatu", "oneway": "yes", "surface": "asphalt"}}, {"type": "way", "id": 405705652, "nodes": [4078629984, 12087782240, 227097121], "tags": {"cycleway:right": "track", "highway": "residential", "lane_markings": "no", "maxspeed": "30", "maxspeed:type": "FI:zone30", "name": "Puuvillatehtaankatu", "name:fi": "Puuvillatehtaankatu", "note": "Historic Finnish name translated from Swedish language city plan; may be inaccurate", "old_name": "Polttimonkatu", "old_name:fi": "Polttimonkatu", "old_name:sv": "Br\u00e4nnerigatan", "oneway": "no", "sidewalk": "both", "source:old_name:sv": "1841 city plan", "surface": "asphalt"}}, {"type": "way", "id": 405705653, "nodes": [227097121, 12087825261, 10811049013, 227097136], "tags": {"cycleway:right": "track", "highway": "residential", "maxspeed": "30", "maxspeed:type": "FI:zone30", "name": "Mustanlahdenkatu", "name:fi": "Mustanlahdenkatu", "surface": "asphalt"}}, {"type": "way", "id": 487825896, "nodes": [317146827, 32921463], "tags": {"cycleway:right": "track", "foot": "yes", "highway": "residential", "lit": "yes", "maxspeed": "30", "maxspeed:type": "FI:zone30", "name": "Kivilevontie", "name:fi": "Kivilevontie", "surface": "asphalt"}}, {"type": "way", "id": 1082682417, "nodes": [262471904, 299545365, 408805742, 3349733866, 11835983561], "tags": {"cycleway:left": "no", "cycleway:right": "track", "cycleway:right:segregated": "no", "foot": "yes", "highway": "tertiary", "lane_markings": "no", "lanes": "3", "lanes:backward": "2", "lanes:forward": "1", "maxspeed": "30", "maxspeed:type": "FI:zone30", "name": "Lintuviidankatu", "name:fi": "Lintuviidankatu", "sidewalk": "right", "surface": "asphalt", "turn:lanes:backward": "left|through;right"}}, {"type": "way", "id": 1274725946, "nodes": [11835983561, 9813837177, 32031884], "tags": {"cycleway:left": "no", "cycleway:right": "track", "cycleway:right:segregated": "no", "foot": "yes", "highway": "tertiary", "lane_markings": "no", "maxspeed": "30", "maxspeed:type": "FI:zone30", "name": "Lintuviidankatu", "name:fi": "Lintuviidankatu", "sidewalk": "right", "surface": "asphalt"}}]}