{"version": 0.6, "generator": "Overpass API 0.7.62.1 084b4234", "osm3s": {"timestamp_osm_base": "2024-11-04T13:52:05Z", "copyright": "The data included in this document is from www.openstreetmap.org. The data is made available under ODbL."}, "elements": [{"type": "node", "id": 30254238, "lat": 41.3872033, "lon": 2.1744287}, {"type": "node", "id": 30884253, "lat": 41.3870798, "lon": 2.1746125, "tags": {"highway": "traffic_signals", "traffic_signals": "signal"}}, {"type": "node", "id": 31285424, "lat": 41.4039461, "lon": 2.1306119, "tags": {"highway": "traffic_signals", "traffic_signals": "signal"}}, {"type": "node", "id": 31285427, "lat": 41.4028454, "lon": 2.1314597, "tags": {"highway": "traffic_signals", "traffic_signals": "signal"}}, {"type": "node", "id": 31285428, "lat": 41.4023435, "lon": 2.1318493}, {"type": "node", "id": 31285430, "lat": 41.4015732, "lon": 2.1324434}, {"type": "node", "id": 31285431, "lat": 41.4009234, "lon": 2.1329405, "tags": {"highway": "traffic_signals", "traffic_signals": "signal"}}, {"type": "node", "id": 31285432, "lat": 41.4004219, "lon": 2.1333258, "tags": {"highway": "traffic_signals", "traffic_signals": "signal"}}, {"type": "node", "id": 234836631, "lat": 41.3855798, "lon": 2.176581}, {"type": "node", "id": 258359282, "lat": 41.3879497, "lon": 2.1095723}, {"type": "node", "id": 324231840, "lat": 41.4046843, "lon": 2.1300311, "tags": {"highway": "traffic_signals", "traffic_signals": "signal"}}, {"type": "node", "id": 330415541, "lat": 41.4021208, "lon": 2.132008, "tags": {"highway": "traffic_signals", "traffic_signals": "signal"}}, {"type": "node", "id": 356295210, "lat": 41.3883631, "lon": 2.1087824}, {"type": "node", "id": 356295211, "lat": 41.3885378, "lon": 2.108987}, {"type": "node", "id": 356295212, "lat": 41.3898406, "lon": 2.1106845}, {"type": "node", "id": 356295237, "lat": 41.3873902, "lon": 2.1090535}, {"type": "node", "id": 356295240, "lat": 41.3877856, "lon": 2.1082984}, {"type": "node", "id": 359236300, "lat": 41.3931898, "lon": 2.1149467}, {"type": "node", "id": 359236301, "lat": 41.3916892, "lon": 2.1130269}, {"type": "node", "id": 359236302, "lat": 41.390738, "lon": 2.1118185}, {"type": "node", "id": 359236400, "lat": 41.3883032, "lon": 2.1073034}, {"type": "node", "id": 430984232, "lat": 41.3873596, "lon": 2.1741969}, {"type": "node", "id": 620148198, "lat": 41.4122648, "lon": 2.1977377}, {"type": "node", "id": 1009204152, "lat": 41.3871843, "lon": 2.1110479}, {"type": "node", "id": 1809696889, "lat": 41.3998413, "lon": 2.1337705}, {"type": "node", "id": 1982918816, "lat": 41.3878515, "lon": 2.1097379}, {"type": "node", "id": 2087205007, "lat": 41.3994054, "lon": 2.1341252, "tags": {"highway": "traffic_signals", "traffic_signals": "signal"}}, {"type": "node", "id": 2087205008, "lat": 41.3999198, "lon": 2.1337185}, {"type": "node", "id": 2087205014, "lat": 41.4018677, "lon": 2.1322235, "tags": {"highway": "traffic_signals", "traffic_signals": "signal"}}, {"type": "node", "id": 2087205017, "lat": 41.4033473, "lon": 2.1310778, "tags": {"highway": "traffic_signals", "traffic_signals": "signal"}}, {"type": "node", "id": 2767286543, "lat": 41.4122392, "lon": 2.197704}, {"type": "node", "id": 4041877215, "lat": 41.4039079, "lon": 2.1306453, "tags": {"crossing": "traffic_signals", "crossing:signals": "yes", "highway": "crossing"}}, {"type": "node", "id": 4858601134, "lat": 41.3867634, "lon": 2.1119209, "tags": {"crossing": "traffic_signals", "crossing:signals": "yes", "highway": "crossing"}}, {"type": "node", "id": 5491831747, "lat": 41.3931299, "lon": 2.1148694, "tags": {"crossing": "traffic_signals", "highway": "crossing"}}, {"type": "node", "id": 5491831750, "lat": 41.3908102, "lon": 2.1119103, "tags": {"crossing": "uncontrolled", "highway": "crossing"}}, {"type": "node", "id": 5491831752, "lat": 41.390672, "lon": 2.1117339, "tags": {"crossing": "uncontrolled", "highway": "crossing"}}, {"type": "node", "id": 5491831754, "lat": 41.3917218, "lon": 2.113069, "tags": {"crossing": "uncontrolled", "highway": "crossing"}}, {"type": "node", "id": 5491831756, "lat": 41.3916528, "lon": 2.1129813, "tags": {"crossing": "uncontrolled", "highway": "crossing"}}, {"type": "node", "id": 5676284310, "lat": 41.3882497, "lon": 2.1074075, "tags": {"crossing": "traffic_signals", "crossing:signals": "yes", "highway": "crossing"}}, {"type": "node", "id": 5676284315, "lat": 41.3878359, "lon": 2.1083441, "tags": {"crossing": "marked", "crossing:markings": "yes", "highway": "crossing"}}, {"type": "node", "id": 5676284316, "lat": 41.3884805, "lon": 2.1089187, "tags": {"highway": "crossing"}}, {"type": "node", "id": 5676285523, "lat": 41.3877487, "lon": 2.1083718, "tags": {"crossing": "marked", "crossing:markings": "yes", "highway": "crossing"}}, {"type": "node", "id": 5676285525, "lat": 41.3886147, "lon": 2.1090874, "tags": {"highway": "crossing"}}, {"type": "node", "id": 5676285526, "lat": 41.3878144, "lon": 2.1082374, "tags": {"crossing": "marked", "crossing:markings": "yes", "highway": "crossing"}}, {"type": "node", "id": 6099587801, "lat": 41.3898834, "lon": 2.1107389, "tags": {"crossing": "uncontrolled", "crossing_ref": "zebra", "highway": "crossing"}}, {"type": "node", "id": 6099838348, "lat": 41.387404, "lon": 2.1090272, "tags": {"crossing": "marked", "crossing:markings": "yes", "highway": "crossing"}}, {"type": "node", "id": 6875265479, "lat": 41.4033129, "lon": 2.1311068, "tags": {"crossing": "traffic_signals", "crossing:signals": "yes", "highway": "crossing"}}, {"type": "node", "id": 6875265484, "lat": 41.4027698, "lon": 2.1315164, "tags": {"crossing": "traffic_signals", "crossing:markings": "dashes", "highway": "crossing"}}, {"type": "node", "id": 6875270286, "lat": 41.4022159, "lon": 2.1319483, "tags": {"crossing": "traffic_signals", "crossing:markings": "dashes", "crossing:signals": "yes", "highway": "crossing"}}, {"type": "node", "id": 6875270289, "lat": 41.4020407, "lon": 2.1320778, "tags": {"crossing": "traffic_signals", "crossing:markings": "dashes", "crossing:signals": "yes", "highway": "crossing"}}, {"type": "node", "id": 6875270291, "lat": 41.4018191, "lon": 2.1322597, "tags": {"crossing": "traffic_signals", "crossing:markings": "dashes", "crossing:signals": "yes", "highway": "crossing"}}, {"type": "node", "id": 6875270293, "lat": 41.4015146, "lon": 2.1324847, "tags": {"crossing": "traffic_signals", "crossing:markings": "dashes", "highway": "crossing"}}, {"type": "node", "id": 6875270295, "lat": 41.4008632, "lon": 2.1329873, "tags": {"crossing": "traffic_signals", "crossing:signals": "yes", "highway": "crossing"}}, {"type": "node", "id": 6875270297, "lat": 41.4003573, "lon": 2.1333719, "tags": {"crossing": "traffic_signals", "crossing:signals": "yes", "highway": "crossing"}}, {"type": "node", "id": 6875270299, "lat": 41.4004712, "lon": 2.1332866, "tags": {"crossing": "traffic_signals", "crossing:signals": "yes", "highway": "crossing"}}, {"type": "node", "id": 6875270302, "lat": 41.3999866, "lon": 2.1336624, "tags": {"crossing": "traffic_signals", "crossing:signals": "yes", "highway": "crossing", "traffic_signals": "signal"}}, {"type": "node", "id": 6875270304, "lat": 41.3994622, "lon": 2.1340754, "tags": {"crossing": "traffic_signals", "crossing:signals": "yes", "highway": "crossing"}}, {"type": "node", "id": 7233634003, "lat": 41.3897934, "lon": 2.110623, "tags": {"crossing": "uncontrolled", "crossing_ref": "zebra", "highway": "crossing"}}, {"type": "node", "id": 7233634062, "lat": 41.3878079, "lon": 2.1082532}, {"type": "node", "id": 7234883330, "lat": 41.3878862, "lon": 2.1096837, "tags": {"crossing": "traffic_signals", "crossing:signals": "yes", "highway": "crossing"}}, {"type": "node", "id": 7234883344, "lat": 41.3874308, "lon": 2.1089763, "tags": {"crossing": "marked", "crossing:markings": "yes", "highway": "crossing"}}, {"type": "node", "id": 7251841063, "lat": 41.3871043, "lon": 2.1745658}, {"type": "node", "id": 7473591503, "lat": 41.3874451, "lon": 2.1740876, "tags": {"button_operated": "no", "crossing": "traffic_signals", "highway": "traffic_signals", "tactile_paving": "yes", "traffic_signals:direction": "forward", "traffic_signals:vibration": "no"}}, {"type": "node", "id": 7757019554, "lat": 41.3869622, "lon": 2.1115102, "tags": {"bus": "yes", "name": "Gran Capit\u00e0 - Av de l'Ex\u00e8rcit", "operator": "Transports Metropolitans de Barcelona", "public_transport": "stop_position", "ref": "335", "route_ref": "H4 175 113 EP1 JM E44"}}, {"type": "node", "id": 8119152520, "lat": 41.3867883, "lon": 2.1118664, "tags": {"crossing": "traffic_signals", "crossing:signals": "yes", "highway": "crossing"}}, {"type": "node", "id": 8119424305, "lat": 41.3913153, "lon": 2.1125524}, {"type": "node", "id": 8157531203, "lat": 41.4003383, "lon": 2.1333867, "tags": {"cycleway": "asl"}}, {"type": "node", "id": 8157531205, "lat": 41.4020222, "lon": 2.1320933, "tags": {"cycleway": "asl"}}, {"type": "node", "id": 8157531207, "lat": 41.4038898, "lon": 2.1306593, "tags": {"cycleway": "asl"}}, {"type": "node", "id": 8157531209, "lat": 41.4008452, "lon": 2.1330018, "tags": {"cycleway": "asl"}}, {"type": "node", "id": 8157531210, "lat": 41.4027484, "lon": 2.1315331, "tags": {"cycleway": "asl"}}, {"type": "node", "id": 8165489666, "lat": 41.4046426, "lon": 2.1300639, "tags": {"button_operated": "no", "crossing": "traffic_signals", "highway": "crossing", "tactile_paving": "yes", "traffic_signals:sound": "no", "traffic_signals:vibration": "no"}}, {"type": "node", "id": 8203768656, "lat": 41.40314, "lon": 2.1312379, "tags": {"bus": "yes", "highway": "bus_stop", "name": "Ganduxer - Emancipaci\u00f3", "public_transport": "stop_position", "ref": "527", "route_ref": "70 V11 V13 N8"}}, {"type": "node", "id": 8203768657, "lat": 41.4001522, "lon": 2.1335327, "tags": {"bus": "yes", "highway": "bus_stop", "name": "Ganduxer - Alacant", "public_transport": "stop_position", "ref": "526", "route_ref": "70 V11 V13 N8"}}, {"type": "node", "id": 8214234924, "lat": 41.3871255, "lon": 2.1745382, "tags": {"bus": "yes", "highway": "bus_stop", "name": "Via Laietana - Comtal", "public_transport": "stop_position", "ref": "211", "route_ref": "47 59 V17 V15 N8 N28"}}, {"type": "node", "id": 8223182621, "lat": 41.412212, "lon": 2.1976681}, {"type": "node", "id": 8493707417, "lat": 41.4114372, "lon": 2.1966485}, {"type": "node", "id": 11178765233, "lat": 41.3854889, "lon": 2.1767034}, {"type": "node", "id": 11240086946, "lat": 41.3873657, "lon": 2.1741891, "tags": {"button_operated": "no", "crossing": "traffic_signals", "highway": "traffic_signals", "tactile_paving": "yes", "traffic_signals:direction": "backward"}}, {"type": "node", "id": 11240086947, "lat": 41.3883372, "lon": 2.1729474}, {"type": "node", "id": 11348304190, "lat": 41.3855334, "lon": 2.1766386, "tags": {"crossing": "traffic_signals", "highway": "traffic_signals", "traffic_signals:direction": "forward"}}, {"type": "node", "id": 12201965755, "lat": 41.3877691, "lon": 2.1083311, "tags": {"highway": "crossing"}}, {"type": "node", "id": 12212493896, "lat": 41.3999782, "lon": 2.1336694, "tags": {"highway": "traffic_signals", "traffic_signals": "signal"}}, {"type": "way", "id": 20475892, "nodes": [11240086947, 7473591503], "tags": {"cycleway:left": "track", "cycleway:right": "share_busway", "highway": "secondary", "lanes": "3", "lanes:forward": "2", "lit": "yes", "maxspeed": "30", "name": "Via Laietana", "name:ca": "Via Laietana", "name:etymology:wikidata": "Q1651041", "oneway": "no", "psv:lanes:forward": "yes|designated", "smoothness": "excellent", "surface": "asphalt", "wikidata": "Q2562014", "wikipedia": "ca:Via Laietana"}}, {"type": "way", "id": 31823239, "nodes": [356295240, 7233634062, 5676285526, 5676284310, 359236400], "tags": {"cycleway:left": "track", "cycleway:right:oneway": "no", "highway": "residential", "maxspeed": "30", "name": "Carrer de Carreras", "name:ca": "Carrer de Carreras", "oneway": "yes", "surface": "asphalt"}}, {"type": "way", "id": 48877158, "nodes": [620148198, 2767286543, 8223182621, 8493707417], "tags": {"access": "destination", "bicycle": "yes", "cycleway:left": "track", "cycleway:left:segregated": "no", "cycleway:right": "no", "highway": "pedestrian", "lanes": "1", "lit": "yes", "maxspeed": "30", "name": "Gran Via de les Corts Catalanes", "name:ca": "Gran Via de les Corts Catalanes", "name:etymology:wikidata": "Q1902969", "oneway:motor_vehicle": "yes", "sidewalk:left": "yes", "surface": "asphalt", "wikidata": "Q263293", "wikipedia": "ca:Gran Via de les Corts Catalanes"}}, {"type": "way", "id": 198597865, "nodes": [2087205007, 6875270304, 1809696889, 2087205008, 12212493896, 6875270302, 8203768657, 8157531203, 6875270297, 31285432, 6875270299, 8157531209, 6875270295, 31285431, 6875270293, 31285430, 6875270291, 2087205014, 8157531205, 6875270289, 330415541, 6875270286, 31285428, 8157531210, 6875265484, 31285427, 8203768656, 6875265479, 2087205017, 8157531207, 4041877215, 31285424], "tags": {"cycleway:left": "track", "highway": "tertiary", "lanes": "3", "lit": "yes", "maxspeed": "50", "name": "Carrer de Ganduxer", "name:ca": "Carrer de Ganduxer", "oneway": "yes"}}, {"type": "way", "id": 237914531, "nodes": [4858601134, 8119152520, 7757019554, 1009204152], "tags": {"cycleway:left": "track", "cycleway:left:oneway": "no", "highway": "residential", "maxspeed": "30", "name": "Carrer del Gran Capit\u00e0", "name:ca": "Carrer del Gran Capit\u00e0", "oneway": "no", "surface": "asphalt"}}, {"type": "way", "id": 391402482, "nodes": [356295212, 7233634003, 5676285525, 356295211], "tags": {"bicycle": "yes", "cycleway:left": "track", "cycleway:left:oneway": "no", "highway": "residential", "lanes": "2", "lit": "yes", "maxspeed": "30", "name": "Carrer dels Cavallers", "name:ca": "Carrer dels Cavallers", "oneway": "yes", "surface": "asphalt"}}, {"type": "way", "id": 542503075, "nodes": [359236300, 5491831747, 5491831754, 359236301, 5491831756, 8119424305, 5491831750, 359236302], "tags": {"cycleway:left": "track", "cycleway:left:oneway": "no", "highway": "residential", "lit": "yes", "maxspeed": "30", "name": "Carrer dels Cavallers", "name:ca": "Carrer dels Cavallers", "oneway": "yes", "surface": "asphalt"}}, {"type": "way", "id": 549755457, "nodes": [359236302, 5491831752, 6099587801, 356295212], "tags": {"cycleway:left": "track", "cycleway:right:oneway": "no", "highway": "residential", "lanes": "1", "lit": "yes", "maxspeed": "30", "name": "Carrer dels Cavallers", "name:ca": "Carrer dels Cavallers", "oneway": "yes", "surface": "asphalt"}}, {"type": "way", "id": 551933607, "nodes": [356295211, 5676284316, 356295210, 5676284315, 356295240], "tags": {"cycleway:left": "track", "cycleway:right:oneway": "no", "highway": "residential", "maxspeed": "30", "name": "Carrer dels Cavallers", "name:ca": "Carrer dels Cavallers", "oneway": "yes"}}, {"type": "way", "id": 551933608, "nodes": [356295237, 6099838348, 7234883344, 5676285523, 12201965755, 356295240], "tags": {"cycleway:left": "track", "cycleway:left:oneway": "no", "highway": "residential", "maxspeed": "30", "name": "Carrer de Carreras", "name:ca": "Carrer de Carreras", "oneway": "yes"}}, {"type": "way", "id": 709075302, "nodes": [31285424, 8165489666, 324231840], "tags": {"cycleway:left": "track", "highway": "tertiary", "lanes": "4", "lit": "yes", "maxspeed": "50", "name": "Carrer de Ganduxer", "name:ca": "Carrer de Ganduxer", "oneway": "yes"}}, {"type": "way", "id": 830793058, "nodes": [1009204152, 1982918816], "tags": {"cycleway:left": "track", "cycleway:left:oneway": "no", "highway": "residential", "maxspeed": "30", "name": "Carrer del Gran Capit\u00e0", "name:ca": "Carrer del Gran Capit\u00e0", "oneway": "no", "surface": "asphalt"}}, {"type": "way", "id": 879196982, "nodes": [1982918816, 7234883330, 258359282], "tags": {"cycleway:left": "track", "cycleway:left:oneway": "no", "highway": "residential", "maxspeed": "30", "name": "Carrer del Gran Capit\u00e0", "name:ca": "Carrer del Gran Capit\u00e0", "oneway": "no", "surface": "asphalt"}}, {"type": "way", "id": 1112888042, "nodes": [234836631, 11348304190, 11178765233], "tags": {"cycleway:left": "track", "cycleway:right": "share_busway", "highway": "secondary", "lanes": "3", "lanes:forward": "2", "lit": "yes", "maxspeed": "30", "name": "Via Laietana", "name:ca": "Via Laietana", "name:etymology:wikidata": "Q1651041", "oneway": "no", "psv:lanes:forward": "yes|designated", "surface": "asphalt", "wikidata": "Q2562014", "wikipedia": "ca:Via Laietana"}}, {"type": "way", "id": 1213170279, "nodes": [11240086946, 430984232, 30254238, 8214234924, 7251841063, 30884253], "tags": {"cycleway:left": "track", "cycleway:right": "share_busway", "highway": "secondary", "lanes": "3", "lanes:forward": "2", "lit": "yes", "maxspeed": "30", "name": "Via Laietana", "name:ca": "Via Laietana", "name:etymology:wikidata": "Q1651041", "oneway": "no", "psv:lanes:forward": "yes|designated", "smoothness": "excellent", "surface": "asphalt", "wikidata": "Q2562014", "wikipedia": "ca:Via Laietana"}}]}